{
  "type": "FeatureCollection",
  "features": [
    {
      "type": "Feature",
      "properties": {
        "norad_id": 41589,
        "name": "EUTELSAT 117 WEST B (WAAS/PRN 131)",
        "group": "gnss",
        "lat": 0.001863652998776857,
        "lon": -164.05216982258662,
        "alt_km": 35785.91564388138,
        "timestamp": "2025-12-27T14:26:30.764351+00:00",
        "meta_object_name": "EUTELSAT 117 WEST B (WAAS/PRN 131)",
        "meta_object_id": "2016-038B",
        "meta_epoch": "2025-12-27T05:35:47.867424",
        "meta_mean_motion": 1.00273402,
        "meta_eccentricity": 7.7e-06,
        "meta_inclination": 0.0096,
        "meta_ra_of_asc_node": 156.0501,
        "meta_arg_of_pericenter": 198.0121,
        "meta_mean_anomaly": 68.8491,
        "meta_ephemeris_type": 0,
        "meta_classification_type": "U",
        "meta_norad_cat_id": 41589,
        "meta_element_set_no": 999,
        "meta_rev_at_epoch": 3493,
        "meta_bstar": 0,
        "meta_mean_motion_dot": 1.1e-07,
        "meta_mean_motion_ddot": 0,
        "tle_line1": "1 41589U 16038B   25361.23319291  .00000011  00000+0  00000+0 0  9992",
        "tle_line2": "2 41589   0.0096 156.0501 0000077 198.0121  68.8491  1.00273402 34932"
      },
      "geometry": {
        "type": "Point",
        "coordinates": [
          -164.05216982258662,
          0.001863652998776857
        ]
      }
    },
    {
      "type": "Feature",
      "properties": {
        "norad_id": 41859,
        "name": "GSAT0207 (GALILEO 15)",
        "group": "gnss",
        "lat": 55.11098678744335,
        "lon": -172.68385372301915,
        "alt_km": 23220.175220645313,
        "timestamp": "2025-12-27T14:26:30.764365+00:00",
        "meta_object_name": "GSAT0207 (GALILEO 15)",
        "meta_object_id": "2016-069A",
        "meta_epoch": "2025-12-22T04:24:39.710016",
        "meta_mean_motion": 1.70474442,
        "meta_eccentricity": 0.00024396,
        "meta_inclination": 55.3874,
        "meta_ra_of_asc_node": 105.9888,
        "meta_arg_of_pericenter": 317.4324,
        "meta_mean_anomaly": 42.5257,
        "meta_ephemeris_type": 0,
        "meta_classification_type": "U",
        "meta_norad_cat_id": 41859,
        "meta_element_set_no": 999,
        "meta_rev_at_epoch": 5638,
        "meta_bstar": 0,
        "meta_mean_motion_dot": 6e-08,
        "meta_mean_motion_ddot": 0,
        "tle_line1": "1 41859U 16069A   25356.18379294  .00000006  00000+0  00000+0 0  9997",
        "tle_line2": "2 41859  55.3874 105.9888 0002439 317.4324  42.5257  1.70474442 56382"
      },
      "geometry": {
        "type": "Point",
        "coordinates": [
          -172.68385372301915,
          55.11098678744335
        ]
      }
    },
    {
      "type": "Feature",
      "properties": {
        "norad_id": 41860,
        "name": "GSAT0212 (GALILEO 16)",
        "group": "gnss",
        "lat": 4.111197878709476,
        "lon": -77.00856432644292,
        "alt_km": 23227.384604993484,
        "timestamp": "2025-12-27T14:26:30.764379+00:00",
        "meta_object_name": "GSAT0212 (GALILEO 16)",
        "meta_object_id": "2016-069B",
        "meta_epoch": "2025-12-26T03:26:41.871552",
        "meta_mean_motion": 1.70474669,
        "meta_eccentricity": 0.00020518,
        "meta_inclination": 55.3873,
        "meta_ra_of_asc_node": 105.8745,
        "meta_arg_of_pericenter": 19.1308,
        "meta_mean_anomaly": 340.872,
        "meta_ephemeris_type": 0,
        "meta_classification_type": "U",
        "meta_norad_cat_id": 41860,
        "meta_element_set_no": 999,
        "meta_rev_at_epoch": 5670,
        "meta_bstar": 0,
        "meta_mean_motion_dot": 1.8e-07,
        "meta_mean_motion_ddot": 0,
        "tle_line1": "1 41860U 16069B   25360.14354018  .00000018  00000+0  00000+0 0  9990",
        "tle_line2": "2 41860  55.3873 105.8745 0002051  19.1308 340.8720  1.70474669 56708"
      },
      "geometry": {
        "type": "Point",
        "coordinates": [
          -77.00856432644292,
          4.111197878709476
        ]
      }
    },
    {
      "type": "Feature",
      "properties": {
        "norad_id": 41861,
        "name": "GSAT0213 (GALILEO 17)",
        "group": "gnss",
        "lat": -39.52994689598664,
        "lon": 71.15406066528219,
        "alt_km": 23219.101491564033,
        "timestamp": "2025-12-27T14:26:30.764390+00:00",
        "meta_object_name": "GSAT0213 (GALILEO 17)",
        "meta_object_id": "2016-069C",
        "meta_epoch": "2025-12-25T22:11:16.691136",
        "meta_mean_motion": 1.70474838,
        "meta_eccentricity": 0.0002917,
        "meta_inclination": 55.3899,
        "meta_ra_of_asc_node": 105.8882,
        "meta_arg_of_pericenter": 282.7957,
        "meta_mean_anomaly": 77.1667,
        "meta_ephemeris_type": 0,
        "meta_classification_type": "U",
        "meta_norad_cat_id": 41861,
        "meta_element_set_no": 999,
        "meta_rev_at_epoch": 5656,
        "meta_bstar": 0,
        "meta_mean_motion_dot": 1.8e-07,
        "meta_mean_motion_ddot": 0,
        "tle_line1": "1 41861U 16069C   25359.92449874  .00000018  00000+0  00000+0 0  9990",
        "tle_line2": "2 41861  55.3899 105.8882 0002917 282.7957  77.1667  1.70474838 56560"
      },
      "geometry": {
        "type": "Point",
        "coordinates": [
          71.15406066528219,
          -39.52994689598664
        ]
      }
    },
    {
      "type": "Feature",
      "properties": {
        "norad_id": 41862,
        "name": "GSAT0214 (GALILEO 18)",
        "group": "gnss",
        "lat": -31.77489873570348,
        "lon": -48.876427021649356,
        "alt_km": 23224.386774450308,
        "timestamp": "2025-12-27T14:26:30.764412+00:00",
        "meta_object_name": "GSAT0214 (GALILEO 18)",
        "meta_object_id": "2016-069D",
        "meta_epoch": "2025-12-27T05:50:53.189952",
        "meta_mean_motion": 1.70474774,
        "meta_eccentricity": 0.00016068,
        "meta_inclination": 55.3883,
        "meta_ra_of_asc_node": 105.8444,
        "meta_arg_of_pericenter": 288.5964,
        "meta_mean_anomaly": 71.3802,
        "meta_ephemeris_type": 0,
        "meta_classification_type": "U",
        "meta_norad_cat_id": 41862,
        "meta_element_set_no": 999,
        "meta_rev_at_epoch": 5671,
        "meta_bstar": 0,
        "meta_mean_motion_dot": 1.5e-07,
        "meta_mean_motion_ddot": 0,
        "tle_line1": "1 41862U 16069D   25361.24367118  .00000015  00000+0  00000+0 0  9996",
        "tle_line2": "2 41862  55.3883 105.8444 0001606 288.5964  71.3802  1.70474774 56717"
      },
      "geometry": {
        "type": "Point",
        "coordinates": [
          -48.876427021649356,
          -31.77489873570348
        ]
      }
    },
    {
      "type": "Feature",
      "properties": {
        "norad_id": 42709,
        "name": "SES-15 (WAAS/PRN 133)",
        "group": "gnss",
        "lat": -0.01074956411013797,
        "lon": -176.2285549223564,
        "alt_km": 35790.01984537078,
        "timestamp": "2025-12-27T14:26:30.764426+00:00",
        "meta_object_name": "SES-15 (WAAS/PRN 133)",
        "meta_object_id": "2017-026A",
        "meta_epoch": "2025-12-27T05:32:25.689696",
        "meta_mean_motion": 1.00269088,
        "meta_eccentricity": 8.247e-05,
        "meta_inclination": 0.0202,
        "meta_ra_of_asc_node": 336.2827,
        "meta_arg_of_pericenter": 5.4577,
        "meta_mean_anomaly": 68.1588,
        "meta_ephemeris_type": 0,
        "meta_classification_type": "U",
        "meta_norad_cat_id": 42709,
        "meta_element_set_no": 999,
        "meta_rev_at_epoch": 570,
        "meta_bstar": 0,
        "meta_mean_motion_dot": 8.2e-07,
        "meta_mean_motion_ddot": 0,
        "tle_line1": "1 42709U 17026A   25361.23085289  .00000082  00000+0  00000+0 0  9990",
        "tle_line2": "2 42709   0.0202 336.2827 0000824   5.4577  68.1588  1.00269088  5703"
      },
      "geometry": {
        "type": "Point",
        "coordinates": [
          -176.2285549223564,
          -0.01074956411013797
        ]
      }
    },
    {
      "type": "Feature",
      "properties": {
        "norad_id": 42738,
        "name": "QZS-2 (QZSS/PRN 194)",
        "group": "gnss",
        "lat": -13.60607990990647,
        "lon": 82.65132008391082,
        "alt_km": 34393.68804838414,
        "timestamp": "2025-12-27T14:26:30.764438+00:00",
        "meta_object_name": "QZS-2 (QZSS/PRN 194)",
        "meta_object_id": "2017-028A",
        "meta_epoch": "2025-12-21T12:44:15.516096",
        "meta_mean_motion": 1.00280763,
        "meta_eccentricity": 0.07561437,
        "meta_inclination": 39.6996,
        "meta_ra_of_asc_node": 245.7532,
        "meta_arg_of_pericenter": 269.5788,
        "meta_mean_anomaly": 268.1676,
        "meta_ephemeris_type": 0,
        "meta_classification_type": "U",
        "meta_norad_cat_id": 42738,
        "meta_element_set_no": 999,
        "meta_rev_at_epoch": 584,
        "meta_bstar": 0,
        "meta_mean_motion_dot": -1.06e-06,
        "meta_mean_motion_ddot": 0,
        "tle_line1": "1 42738U 17028A   25355.53073514 -.00000106  00000+0  00000+0 0  9996",
        "tle_line2": "2 42738  39.6996 245.7532 0756143 269.5788 268.1676  1.00280763  5847"
      },
      "geometry": {
        "type": "Point",
        "coordinates": [
          82.65132008391082,
          -13.60607990990647
        ]
      }
    }
  ]
}